GLOBALSTAR M084         
1 38040U 11080A   24360.36573366 -.00000068  00000+0  19976-3 0  9998
2 38040  51.9987 217.6502 0001261  67.6658 103.4110 12.62272932600997
GLOBALSTAR M080         
1 38041U 11080B   24360.33973437 -.00000073  00000+0  16914-3 0  9994
2 38041  52.0040 219.2774 0001205  52.7408 118.7444 12.62259798600977
GLOBALSTAR M082         
1 38042U 11080C   24360.47732566 -.00000076  00000+0  15359-3 0  9991
2 38042  52.0047 174.2836 0001310 115.2054 262.7162 12.62271658601734
GLOBALSTAR M092         
1 38043U 11080D   24359.90242751 -.00000084  00000+0  11219-3 0  9990
2 38043  52.0083 266.4022 0000942  64.8919 339.3525 12.62270964599947
GLOBALSTAR M090         
1 38044U 11080E   24359.90043687 -.00000079  00000+0  13742-3 0  9995
2 38044  51.9859 170.0717 0001088 105.0415  50.1903 12.62265314601607
GLOBALSTAR M086         
1 38045U 11080F   24360.00526483 -.00000072  00000+0  17525-3 0  9995
2 38045  51.9869 170.2897 0000379  49.3606 102.9173 12.62265121601661
GLOBALSTAR M097         
1 39072U 13005A   24359.91936251 -.00000104  00000+0 -24752-5 0  9990
2 39072  52.0053  84.9225 0000596 138.2387 221.8525 12.62268247548888
GLOBALSTAR M093         
1 39073U 13005B   24360.12982805 -.00000099  00000+0  25315-4 0  9999
2 39073  51.9819  77.8585 0000645 148.4314 211.6591 12.62277466548901
